0 IRIDIUM 59
1 25275U 98019D   13282.50416520  .00000078  00000-0  20882-4 0   526
2 25275 086.3955 130.2910 0002101 107.8739 252.2686 14.34220196813043
0 IRIDIUM 59
1 25275U 98019D   13282.50416520  .00000078  00000-0  20882-4 0   537
2 25275 086.3955 130.2910 0002101 107.8739 252.2686 14.34220196813043
0 IRIDIUM 59
1 25275U 98019D   13283.13208064  .00000098  00000-0  27776-4 0   541
2 25275 086.3954 130.0285 0002114 108.0960 252.0466 14.34220387813134
0 IRIDIUM 59
1 25275U 98019D   13284.52744815  .00000128  00000-0  38734-4 0   555
2 25275 086.3951 129.4453 0002120 108.0633 252.0794 14.34220752813336
0 IRIDIUM 59
1 25275U 98019D   13285.50420538  .00000115  00000-0  33910-4 0   565
2 25275 086.3950 129.0370 0002126 108.0221 252.1207 14.34220925813475
0 IRIDIUM 59
1 25275U 98019D   13286.48096245  .00000115  00000-0  34003-4 0   572
2 25275 086.3948 128.6287 0002139 108.0479 252.0950 14.34221137813619
0 IRIDIUM 59
1 25275U 98019D   13287.17864604  .00000115  00000-0  33987-4 0   582
2 25275 086.3947 128.3371 0002140 108.0341 252.1088 14.34221339813717
0 IRIDIUM 59
1 25275U 98019D   13288.50424466  .00000121  00000-0  36123-4 0   591
2 25275 086.3945 127.7829 0002150 108.2070 251.9360 14.34221770813908
0 IRIDIUM 59
1 25275U 98019D   13289.06239128  .00000106  00000-0  30898-4 0   600
2 25275 086.3945 127.5495 0002151 108.2734 251.8696 14.34222063813988
0 IRIDIUM 59
1 25275U 98019D   13290.10891921  .00000193  00000-0  61774-4 0   616
2 25275 086.3946 127.1118 0002186 107.9009 252.2425 14.34217811814134
0 IRIDIUM 59
1 25275U 98019D   13291.50428956  .00000105  00000-0  30564-4 0   622
2 25275 086.3946 126.5284 0002184 108.1646 251.9788 14.34217871814335
0 IRIDIUM 59
1 25275U 98019D   13291.50428956  .00000105  00000-0  30564-4 0   633
2 25275 086.3946 126.5284 0002184 108.1646 251.9788 14.34217871814335
0 IRIDIUM 59
1 25275U 98019D   13292.48104868  .00000108  00000-0  31441-4 0   643
2 25275 086.3947 126.1201 0002179 107.9151 252.2282 14.34217966814476
0 IRIDIUM 59
1 25275U 98019D   13293.38803912  .00000129  00000-0  38892-4 0   650
2 25275 086.3948 125.7410 0002184 107.5938 252.5497 14.34218097814601
0 IRIDIUM 59
1 25275U 98019D   13294.50433498  .00000144  00000-0  44521-4 0   667
2 25275 086.3947 125.2743 0002183 107.5439 252.5996 14.34218457814760
0 IRIDIUM 59
1 25275U 98019D   13295.48109364  .00000160  00000-0  49949-4 0   675
2 25275 086.3947 124.8659 0002179 107.5282 252.6152 14.34218646814903
